TIANMU-1 07             
1 57399U 23101A   26065.57454230  .00008352  00000+0  29795-3 0  9991
2 57399  97.2728 118.5929 0004609 142.4105 217.7458 15.29118809145964
STARLINK-31912          
1 59656U 24084C   26068.31599313  .00000797  00000+0  38474-4 0  9997
2 59656  43.0049  44.1145 0001097 270.0145  90.0581 15.27585524104314
